start=new Date('2022-09-16T00:00:00.000Z').valueOf();
sats=[{"RA_OF_ASC_NODE":"146.6396","RCS_SIZE":"LARGE","CLASSIFICATION_TYPE":"U","MEAN_MOTION_DOT":"-0.00056510","MEAN_ANOMALY":"340.7919","MEAN_ELEMENT_THEORY":"SGP4","GP_ID":"212679702","TLE_LINE2":"2 47996  53.0538 146.6396 0001554  67.3119 340.7919 15.06422790  1301","OBJECT_TYPE":"PAYLOAD","INCLINATION":"53.0538","DECAY_DATE":null,"EPOCH":"2022-09-15T22:00:00.999936","APOAPSIS":"548.220","SEMIMAJOR_AXIS":"6925.279","REF_FRAME":"TEME","PERIAPSIS":"546.068","TLE_LINE1":"1 47996U 21024V   22258.91667824 -.00056510  00000-0 -38027-2 0  9997","ARG_OF_PERICENTER":"67.3119","EPHEMERIS_TYPE":"0","COUNTRY_CODE":"US","TIME_SYSTEM":"UTC","BSTAR":"-0.00380270000000","REV_AT_EPOCH":"130","PERIOD":"95.591","MEAN_MOTION_DDOT":"0.0000000000000","ECCENTRICITY":"0.00015540","OBJECT_ID":"2021-024V","OBJECT_NAME":"STARLINK-2260","SITE":"AFETR","LAUNCH_DATE":"2021-03-24","MEAN_MOTION":"15.06422790","CENTER_NAME":"EARTH","ELEMENT_SET_NO":"999","FILE":"3575050","NORAD_CAT_ID":"47996"},{"MEAN_MOTION_DDOT":"0.0000000000000","PERIOD":"95.592","REV_AT_EPOCH":"8335","ECCENTRICITY":"0.00011260","BSTAR":"0.00022439000000","TIME_SYSTEM":"UTC","EPHEMERIS_TYPE":"0","COUNTRY_CODE":"US","ELEMENT_SET_NO":"999","NORAD_CAT_ID":"47997","FILE":"3575050","LAUNCH_DATE":"2021-03-24","CENTER_NAME":"EARTH","MEAN_MOTION":"15.06398172","SITE":"AFETR","OBJECT_NAME":"STARLINK-2266","OBJECT_ID":"2021-024W","INCLINATION":"53.0534","OBJECT_TYPE":"PAYLOAD","DECAY_DATE":null,"GP_ID":"212680451","TLE_LINE2":"2 47997  53.0534 256.9813 0001126  76.8644 283.2471 15.06398172 83355","MEAN_ELEMENT_THEORY":"SGP4","MEAN_MOTION_DOT":"0.00003062","RCS_SIZE":"LARGE","CLASSIFICATION_TYPE":"U","RA_OF_ASC_NODE":"256.9813","MEAN_ANOMALY":"283.2471","TLE_LINE1":"1 47997U 21024W   22258.77233405  .00003062  00000-0  22439-3 0  9999","ARG_OF_PERICENTER":"76.8644","PERIAPSIS":"546.439","SEMIMAJOR_AXIS":"6925.354","REF_FRAME":"TEME","EPOCH":"2022-09-15T18:32:09.661920","APOAPSIS":"547.999"},{"TIME_SYSTEM":"UTC","EPHEMERIS_TYPE":"0","COUNTRY_CODE":"US","MEAN_MOTION_DDOT":"0.0000000000000","REV_AT_EPOCH":"8357","PERIOD":"95.592","ECCENTRICITY":"0.00015270","BSTAR":"0.00015221000000","OBJECT_NAME":"STARLINK-2296","OBJECT_ID":"2021-024X","ELEMENT_SET_NO":"999","NORAD_CAT_ID":"47998","FILE":"3574601","MEAN_MOTION":"15.06399058","LAUNCH_DATE":"2021-03-24","CENTER_NAME":"EARTH","SITE":"AFETR","MEAN_ELEMENT_THEORY":"SGP4","RCS_SIZE":"LARGE","CLASSIFICATION_TYPE":"U","MEAN_MOTION_DOT":"0.00001986","RA_OF_ASC_NODE":"234.2826","MEAN_ANOMALY":"287.0817","INCLINATION":"53.0538","OBJECT_TYPE":"PAYLOAD","DECAY_DATE":null,"GP_ID":"212643542","TLE_LINE2":"2 47998  53.0538 234.2826 0001527  73.0339 287.0817 15.06399058 83572","SEMIMAJOR_AXIS":"6925.351","REF_FRAME":"TEME","EPOCH":"2022-09-15T07:34:43.027392","APOAPSIS":"548.274","TLE_LINE1":"1 47998U 21024X   22258.31577578  .00001986  00000-0  15221-3 0  9996","ARG_OF_PERICENTER":"73.0339","PERIAPSIS":"546.159"},{"OBJECT_ID":"2021-024Y","OBJECT_NAME":"STARLINK-2218","SITE":"AFETR","LAUNCH_DATE":"2021-03-24","CENTER_NAME":"EARTH","MEAN_MOTION":"15.06400273","FILE":"3575006","NORAD_CAT_ID":"47999","ELEMENT_SET_NO":"999","COUNTRY_CODE":"US","EPHEMERIS_TYPE":"0","TIME_SYSTEM":"UTC","BSTAR":"0.00020552000000","ECCENTRICITY":"0.00014120","PERIOD":"95.592","REV_AT_EPOCH":"8361","MEAN_MOTION_DDOT":"0.0000000000000","APOAPSIS":"548.191","EPOCH":"2022-09-15T22:18:22.447008","REF_FRAME":"TEME","SEMIMAJOR_AXIS":"6925.348","PERIAPSIS":"546.235","ARG_OF_PERICENTER":"93.8347","TLE_LINE1":"1 47999U 21024Y   22258.92942647  .00002781  00000-0  20552-3 0  9994","MEAN_ANOMALY":"266.2803","RA_OF_ASC_NODE":"201.2774","RCS_SIZE":"LARGE","CLASSIFICATION_TYPE":"U","MEAN_MOTION_DOT":"0.00002781","MEAN_ELEMENT_THEORY":"SGP4","TLE_LINE2":"2 47999  53.0525 201.2774 0001412  93.8347 266.2803 15.06400273 83618","GP_ID":"212658287","DECAY_DATE":null,"OBJECT_TYPE":"PAYLOAD","INCLINATION":"53.0525"},{"OBJECT_NAME":"STARLINK-2270","OBJECT_ID":"2021-024Z","ELEMENT_SET_NO":"999","NORAD_CAT_ID":"48000","FILE":"3574877","LAUNCH_DATE":"2021-03-24","CENTER_NAME":"EARTH","MEAN_MOTION":"15.06393931","SITE":"AFETR","TIME_SYSTEM":"UTC","EPHEMERIS_TYPE":"0","COUNTRY_CODE":"US","MEAN_MOTION_DDOT":"0.0000000000000","REV_AT_EPOCH":"8373","PERIOD":"95.593","ECCENTRICITY":"0.00016620","BSTAR":"0.00003069800000","SEMIMAJOR_AXIS":"6925.367","REF_FRAME":"TEME","EPOCH":"2022-09-15T06:18:24.616224","APOAPSIS":"548.383","TLE_LINE1":"1 48000U 21024Z   22258.26278491  .00000176  00000-0  30698-4 0  9993","ARG_OF_PERICENTER":"62.6768","PERIAPSIS":"546.081","MEAN_ELEMENT_THEORY":"SGP4","CLASSIFICATION_TYPE":"U","RCS_SIZE":"LARGE","MEAN_MOTION_DOT":"0.00000176","RA_OF_ASC_NODE":"189.4917","MEAN_ANOMALY":"297.4390","INCLINATION":"53.0556","OBJECT_TYPE":"PAYLOAD","DECAY_DATE":null,"GP_ID":"212655059","TLE_LINE2":"2 48000  53.0556 189.4917 0001662  62.6768 297.4390 15.06393931 83732"},{"OBJECT_ID":"2021-024AB","OBJECT_NAME":"STARLINK-2265","SITE":"AFETR","LAUNCH_DATE":"2021-03-24","CENTER_NAME":"EARTH","MEAN_MOTION":"15.06400505","ELEMENT_SET_NO":"999","FILE":"3575050","NORAD_CAT_ID":"48002","EPHEMERIS_TYPE":"0","COUNTRY_CODE":"US","TIME_SYSTEM":"UTC","BSTAR":"0.00003235400000","REV_AT_EPOCH":"8395","PERIOD":"95.592","MEAN_MOTION_DDOT":"0.0000000000000","ECCENTRICITY":"0.00013700","EPOCH":"2022-09-15T13:20:23.678304","APOAPSIS":"548.161","SEMIMAJOR_AXIS":"6925.347","REF_FRAME":"TEME","PERIAPSIS":"546.263","TLE_LINE1":"1 48002U 21024AB  22258.55582961  .00000201  00000-0  32354-4 0  9997","ARG_OF_PERICENTER":"83.6756","RA_OF_ASC_NODE":"208.2860","RCS_SIZE":"LARGE","MEAN_MOTION_DOT":"0.00000201","CLASSIFICATION_TYPE":"U","MEAN_ANOMALY":"276.4389","MEAN_ELEMENT_THEORY":"SGP4","GP_ID":"212679952","TLE_LINE2":"2 48002  53.0537 208.2860 0001370  83.6756 276.4389 15.06400505 83951","OBJECT_TYPE":"PAYLOAD","INCLINATION":"53.0537","DECAY_DATE":null},{"ELEMENT_SET_NO":"999","FILE":"3574877","NORAD_CAT_ID":"48003","SITE":"AFETR","CENTER_NAME":"EARTH","LAUNCH_DATE":"2021-03-24","MEAN_MOTION":"15.06403079","OBJECT_NAME":"STARLINK-2263","OBJECT_ID":"2021-024AC","REV_AT_EPOCH":"8240","PERIOD":"95.592","MEAN_MOTION_DDOT":"0.0000000000000","ECCENTRICITY":"0.00013600","BSTAR":"0.00014690000000","TIME_SYSTEM":"UTC","EPHEMERIS_TYPE":"0","COUNTRY_CODE":"US","TLE_LINE1":"1 48003U 21024AC  22258.34431299  .00001907  00000-0  14690-3 0  9998","ARG_OF_PERICENTER":"69.4515","PERIAPSIS":"546.262","SEMIMAJOR_AXIS":"6925.339","REF_FRAME":"TEME","EPOCH":"2022-09-15T08:15:48.642336","APOAPSIS":"548.146","OBJECT_TYPE":"PAYLOAD","INCLINATION":"53.0550","DECAY_DATE":null,"GP_ID":"212654900","TLE_LINE2":"2 48003  53.0550 283.9200 0001360  69.4515 290.6620 15.06403079 82403","MEAN_ELEMENT_THEORY":"SGP4","RA_OF_ASC_NODE":"283.9200","RCS_SIZE":"LARGE","CLASSIFICATION_TYPE":"U","MEAN_MOTION_DOT":"0.00001907","MEAN_ANOMALY":"290.6620"},{"OBJECT_ID":"2021-024AE","OBJECT_NAME":"STARLINK-2254","MEAN_MOTION":"15.06401310","LAUNCH_DATE":"2021-03-24","CENTER_NAME":"EARTH","SITE":"AFETR","ELEMENT_SET_NO":"999","NORAD_CAT_ID":"48005","FILE":"3574881","EPHEMERIS_TYPE":"0","COUNTRY_CODE":"US","TIME_SYSTEM":"UTC","BSTAR":"0.00007209100000","MEAN_MOTION_DDOT":"0.0000000000000","PERIOD":"95.592","REV_AT_EPOCH":"8282","ECCENTRICITY":"0.00015470","EPOCH":"2022-09-15T06:07:06.180096","APOAPSIS":"548.281","SEMIMAJOR_AXIS":"6925.345","REF_FRAME":"TEME","PERIAPSIS":"546.138","TLE_LINE1":"1 48005U 21024AE  22258.25493264  .00000792  00000-0  72091-4 0  9991","ARG_OF_PERICENTER":"82.3787","CLASSIFICATION_TYPE":"U","RCS_SIZE":"LARGE","MEAN_MOTION_DOT":"0.00000792","RA_OF_ASC_NODE":"254.3059","MEAN_ANOMALY":"277.7378","MEAN_ELEMENT_THEORY":"SGP4","GP_ID":"212655089","TLE_LINE2":"2 48005  53.0541 254.3059 0001547  82.3787 277.7378 15.06401310 82829","INCLINATION":"53.0541","OBJECT_TYPE":"PAYLOAD","DECAY_DATE":null},{"BSTAR":"0.00013366000000","REV_AT_EPOCH":"8377","PERIOD":"95.592","MEAN_MOTION_DDOT":"0.0000000000000","ECCENTRICITY":"0.00014800","EPHEMERIS_TYPE":"0","COUNTRY_CODE":"US","TIME_SYSTEM":"UTC","SITE":"AFETR","CENTER_NAME":"EARTH","LAUNCH_DATE":"2021-03-24","MEAN_MOTION":"15.06400161","ELEMENT_SET_NO":"999","FILE":"3574882","NORAD_CAT_ID":"48008","OBJECT_ID":"2021-024AH","OBJECT_NAME":"STARLINK-2271","GP_ID":"212655285","TLE_LINE2":"2 48008  53.0553 188.0296 0001480  79.7974 280.3182 15.06400161 83776","OBJECT_TYPE":"PAYLOAD","INCLINATION":"53.0553","DECAY_DATE":null,"RA_OF_ASC_NODE":"188.0296","CLASSIFICATION_TYPE":"U","RCS_SIZE":"LARGE","MEAN_MOTION_DOT":"0.00001710","MEAN_ANOMALY":"280.3182","MEAN_ELEMENT_THEORY":"SGP4","PERIAPSIS":"546.188","TLE_LINE1":"1 48008U 21024AH  22258.54194533  .00001710  00000-0  13366-3 0  9993","ARG_OF_PERICENTER":"79.7974","EPOCH":"2022-09-15T13:00:24.076512","APOAPSIS":"548.238","SEMIMAJOR_AXIS":"6925.348","REF_FRAME":"TEME"},{"MEAN_ANOMALY":"297.8077","RCS_SIZE":"LARGE","CLASSIFICATION_TYPE":"U","MEAN_MOTION_DOT":"-0.00000509","RA_OF_ASC_NODE":"262.1760","MEAN_ELEMENT_THEORY":"SGP4","TLE_LINE2":"2 48009  53.0535 262.1760 0001737  62.3088 297.8077 15.06392043 83221","GP_ID":"212680452","DECAY_DATE":null,"INCLINATION":"53.0535","OBJECT_TYPE":"PAYLOAD","APOAPSIS":"548.441","EPOCH":"2022-09-15T17:35:47.245344","REF_FRAME":"TEME","SEMIMAJOR_AXIS":"6925.373","PERIAPSIS":"546.035","ARG_OF_PERICENTER":"62.3088","TLE_LINE1":"1 48009U 21024AJ  22258.73318571 -.00000509  00000-0 -15241-4 0  9997","COUNTRY_CODE":"US","EPHEMERIS_TYPE":"0","TIME_SYSTEM":"UTC","BSTAR":"-0.00001524100000","ECCENTRICITY":"0.00017370","MEAN_MOTION_DDOT":"0.0000000000000","PERIOD":"95.593","REV_AT_EPOCH":"8322","OBJECT_ID":"2021-024AJ","OBJECT_NAME":"STARLINK-2153","LAUNCH_DATE":"2021-03-24","MEAN_MOTION":"15.06392043","CENTER_NAME":"EARTH","SITE":"AFETR","NORAD_CAT_ID":"48009","FILE":"3575050","ELEMENT_SET_NO":"999"}];
